{
    "links": {
        "self": "http://www.neowsapp.com/rest/v1/neo/3602982?api_key=iIulBulltgU6a56xZRHN4H3l9WmuAYTsLGpBGhQ2"
    },
    "id": "3602982",
    "neo_reference_id": "3602982",
    "name": "(2012 HD25)",
    "designation": "2012 HD25",
    "nasa_jpl_url": "http://ssd.jpl.nasa.gov/sbdb.cgi?sstr=3602982",
    "absolute_magnitude_h": 23.6,
    "estimated_diameter": {
        "kilometers": {
            "estimated_diameter_min": 0.0506471459,
            "estimated_diameter_max": 0.1132504611
        },
        "meters": {
            "estimated_diameter_min": 50.6471458835,
            "estimated_diameter_max": 113.2504610618
        },
        "miles": {
            "estimated_diameter_min": 0.0314706677,
            "estimated_diameter_max": 0.0703705522
        },
        "feet": {
            "estimated_diameter_min": 166.1651821003,
            "estimated_diameter_max": 371.5566426699
        }
    },
    "is_potentially_hazardous_asteroid": false,
    "close_approach_data": [
        {
            "close_approach_date": "2012-04-19",
            "close_approach_date_full": "2012-Apr-19 08:50",
            "epoch_date_close_approach": 1334825400000,
            "relative_velocity": {
                "kilometers_per_second": "16.6003901997",
                "kilometers_per_hour": "59761.4047189816",
                "miles_per_hour": "37133.4128377472"
            },
            "miss_distance": {
                "astronomical": "0.0249466654",
                "lunar": "9.7042528406",
                "kilometers": "3731968.007442698",
                "miles": "2318937.3892693124"
            },
            "orbiting_body": "Earth"
        }
    ],
    "orbital_data": {
        "orbit_id": "9",
        "orbit_determination_date": "2017-04-06 08:49:55",
        "first_observation_date": "2012-04-27",
        "last_observation_date": "2012-05-02",
        "data_arc_in_days": 5,
        "observations_used": 47,
        "orbit_uncertainty": "8",
        "minimum_orbit_intersection": ".0246852",
        "jupiter_tisserand_invariant": "3.586",
        "epoch_osculation": "2456045.5",
        "eccentricity": ".6300183918800195",
        "semi_major_axis": "1.975369230122151",
        "inclination": "5.949385296947536",
        "ascending_node_longitude": "42.64011680105918",
        "orbital_period": "1014.076815589526",
        "perihelion_distance": ".7308502843913212",
        "perihelion_argument": "93.20915808867105",
        "aphelion_distance": "3.21988817585298",
        "perihelion_time": "2455990.851286974189",
        "mean_anomaly": "19.40044026926588",
        "mean_motion": ".3550026925630053",
        "equinox": "J2000",
        "orbit_class": {
            "orbit_class_type": "APO",
            "orbit_class_description": "Near-Earth asteroid orbits which cross the Earth’s orbit similar to that of 1862 Apollo",
            "orbit_class_range": "a (semi-major axis) > 1.0 AU; q (perihelion) < 1.017 AU"
        }
    },
    "is_sentry_object": false
}